STARLINK-1301           
1 45361U 20019B   26179.00002315  .00116864  00000+0  49293-3 0  9992
2 45361  53.0328 276.1158 0004502 352.5030 236.4255 15.84609173  6019
STARLINK-1262           
1 45366U 20019G   26178.82311319  .00051856  00000+0  14680-2 0  9993
2 45366  53.1531  12.4204 0003058 161.8022 198.3091 15.35806158346638
STARLINK-1273           
1 45367U 20019H   26178.89279270  .00096137  00000+0  11659-2 0  9994
2 45367  53.0436 344.1775 0001638 137.9901 222.1237 15.59871021347010
STARLINK-1277           
1 45369U 20019K   26178.74194907  .00054342  00000+0  46249-3 0  9999
2 45369  53.0420 337.7520 0000562  32.5619 327.5432 15.69067965347092
STARLINK-1281           
1 45370U 20019L   26178.82374821  .00049781  00000+0  13742-2 0  9997
2 45370  53.1570  11.9338 0003403 141.5601 218.5646 15.36607757346647
STARLINK-1300           
1 45374U 20019Q   26178.82857040  .00053058  00000+0  14351-2 0  9999
2 45374  53.1570  11.7379 0003015 156.7860 203.3280 15.37214734346644
STARLINK-1302           
1 45375U 20019R   26178.84156654  .00054533  00000+0  45848-3 0  9990
2 45375  53.0454 333.0787 0002624 121.1140 239.0134 15.69361457347162
STARLINK-1304           
1 45376U 20019S   26178.83174544  .00046863  00000+0  46538-3 0  9992
2 45376  53.0420 335.0360 0001786 156.9949 203.1146 15.65312929347134
STARLINK-1305           
1 45377U 20019T   26178.80346377  .00075019  00000+0  51324-3 0  9999
2 45377  53.0383 312.4468 0004349 316.4424  43.6251 15.74118966347454
STARLINK-1319           
1 45379U 20019V   26178.94326139  .00102979  00000+0  51145-3 0  9997
2 45379  53.0365 302.4968 0001261   9.1569 350.9475 15.81191273347605
STARLINK-1266           
1 45383U 20019Z   26178.81584989  .00048537  00000+0  43744-3 0  9992
2 45383  53.0452 319.7046 0001797 314.3777  45.7091 15.67712424347346
STARLINK-1267           
1 45384U 20019AA  26178.77135321  .00064126  00000+0  48384-3 0  9997
2 45384  53.0436 311.0012 0001111  67.5669 292.5466 15.71893084347462
STARLINK-1272           
1 45386U 20019AC  26179.00002315  .00019038  00000+0  12121-3 0  9994
2 45386  53.0382 288.0048 0001346  50.4494 355.0597 15.76507094  5888
STARLINK-1274           
1 45387U 20019AD  26179.00002315  .00086325  00000+0  83987-3 0  9996
2 45387  53.0182 288.4118 0005050 254.3970 111.9038 15.65559342  5766
STARLINK-1280           
1 45388U 20019AE  26179.00002315  .00093436  00000+0  34855-3 0  9998
2 45388  53.0338 293.7013 0004269 347.2917 341.5174 15.87235189  6012
STARLINK-1283           
1 45389U 20019AF  26178.68180266  .00066249  00000+0  45514-3 0  9990
2 45389  53.0379 288.5561 0002416 303.2038  56.8748 15.74079124347771
STARLINK-1284           
1 45390U 20019AG  26178.78470423  .00061939  00000+0  45910-3 0  9991
2 45390  53.0402 312.1840 0002851  61.5723 298.5581 15.72325555347446
STARLINK-1297           
1 45395U 20019AM  26178.92705085  .00082432  00000+0  53904-3 0  9990
2 45395  53.0407 310.5203 0001051  24.9070 335.2000 15.75135616346668
STARLINK-1307           
1 45397U 20019AP  26178.77270049  .00041925  00000+0  55246-3 0  9995
2 45397  53.0528 319.2091 0000784 254.8982 105.1943 15.58031385347179
STARLINK-1255           
1 45399U 20019AR  26178.69314362  .00047361  00000+0  42800-3 0  9997
2 45399  53.0339 286.0649 0001352 188.1967 171.9026 15.67656348347619
STARLINK-1260           
1 45404U 20019AW  26178.82648933  .00055310  00000+0  13751-2 0  9998
2 45404  53.1559 334.1875 0002797 163.1637 196.9461 15.39785580346886
STARLINK-1263           
1 45405U 20019AX  26178.83527978  .00054210  00000+0  14827-2 0  9998
2 45405  53.1574 335.8279 0001876 198.6162 161.4774 15.36860967346865
STARLINK-1265           
1 45406U 20019AY  26178.74950559  .00101022  00000+0  24538-2 0  9998
2 45406  53.1540 334.4888 0000570  94.8281 265.2789 15.40213259346870
STARLINK-1278           
1 45408U 20019BA  26178.55986505  .00074149  00000+0  46656-3 0  9994
2 45408  53.0398 311.1302 0001617  43.0259 317.0887 15.76059370347168
STARLINK-1296           
1 45412U 20019BE  26178.72180031  .00058024  00000+0  14142-2 0  9996
2 45412  53.1544 334.2849 0002018 143.2369 216.8774 15.40370067346878
STARLINK-1309           
1 45414U 20019BG  26178.65820963  .00068324  00000+0  45712-3 0  9997
2 45414  53.0603 304.8002 0001414  38.4619 321.6500 15.74682840347247
STARLINK-1316           
1 45415U 20019BH  26178.81669457  .00052757  00000+0  12739-2 0  9990
2 45415  53.1555 333.7260 0002612 152.9182 207.1960 15.40694044346913
STARLINK-1286           
1 45417U 20019BK  26178.78785876  .00060130  00000+0  57028-3 0  9997
2 45417  53.0454 316.4349 0003804 317.6856  42.3865 15.66353077347381
STARLINK-1308           
1 45419U 20019BM  26178.85843763  .00051211  00000+0  46040-3 0  9999
2 45419  53.0457 335.2688 0005534  99.1991 260.9651 15.67735572346874
STARLINK-1329           
1 45531U 20025A   26178.93969465  .00074170  00000+0  46624-3 0  9995
2 45531  53.0396 257.4130 0002656 329.1072  30.9791 15.76078898342750
