OBJECT_NAME,OBJECT_ID,EPOCH,MEAN_MOTION,ECCENTRICITY,INCLINATION,RA_OF_ASC_NODE,ARG_OF_PERICENTER,MEAN_ANOMALY,EPHEMERIS_TYPE,CLASSIFICATION_TYPE,NORAD_CAT_ID,ELEMENT_SET_NO,REV_AT_EPOCH,BSTAR,MEAN_MOTION_DOT,MEAN_MOTION_DDOT
STARLINK-1301,2020-019B,2026-06-28T00:00:02.000160,15.84609173,.00045024,53.0328,276.1158,352.5030,236.4255,0,U,45361,999,601,.49293242E-3,.116864E-2,0
STARLINK-1262,2020-019G,2026-06-27T19:45:16.979616,15.35806158,.0003058,53.1531,12.4204,161.8022,198.3091,0,U,45366,999,34663,.14679807E-2,.51856E-3,0
STARLINK-1273,2020-019H,2026-06-27T21:25:37.289280,15.59871021,.00016383,53.0436,344.1775,137.9901,222.1237,0,U,45367,999,34701,.116589E-2,.96137E-3,0
STARLINK-1277,2020-019K,2026-06-27T17:48:24.399648,15.69067965,.00005628,53.0420,337.7520,32.5619,327.5432,0,U,45369,999,34709,.46248762E-3,.54342E-3,0
STARLINK-1281,2020-019L,2026-06-27T19:46:11.845344,15.36607757,.00034035,53.1570,11.9338,141.5601,218.5646,0,U,45370,999,34664,.13742487E-2,.49781E-3,0
STARLINK-1300,2020-019Q,2026-06-27T19:53:08.482560,15.37214734,.0003015,53.1570,11.7379,156.7860,203.3280,0,U,45374,999,34664,.14351137E-2,.53058E-3,0
STARLINK-1302,2020-019R,2026-06-27T20:11:51.349056,15.69361457,.00026244,53.0454,333.0787,121.1140,239.0134,0,U,45375,999,34716,.4584752E-3,.54533E-3,0
STARLINK-1304,2020-019S,2026-06-27T19:57:42.806016,15.65312929,.0001786,53.0420,335.0360,156.9949,203.1146,0,U,45376,999,34713,.46537705E-3,.46863E-3,0
STARLINK-1305,2020-019T,2026-06-27T19:16:59.269728,15.74118966,.00043495,53.0383,312.4468,316.4424,43.6251,0,U,45377,999,34745,.51323564E-3,.75019E-3,0
STARLINK-1319,2020-019V,2026-06-27T22:38:17.784096,15.81191273,.00012614,53.0365,302.4968,9.1569,350.9475,0,U,45379,999,34760,.51145176E-3,.102979E-2,0
STARLINK-1266,2020-019Z,2026-06-27T19:34:49.430496,15.67712424,.00017974,53.0452,319.7046,314.3777,45.7091,0,U,45383,999,34734,.43744068E-3,.48537E-3,0
STARLINK-1267,2020-019AA,2026-06-27T18:30:44.917344,15.71893084,.00011117,53.0436,311.0012,67.5669,292.5466,0,U,45384,999,34746,.48384282E-3,.64126E-3,0
STARLINK-1272,2020-019AC,2026-06-28T00:00:02.000160,15.76507094,.00013467,53.0382,288.0048,50.4494,355.0597,0,U,45386,999,588,.12120978E-3,.19038E-3,0
STARLINK-1274,2020-019AD,2026-06-28T00:00:02.000160,15.65559342,.00050507,53.0182,288.4118,254.3970,111.9038,0,U,45387,999,576,.83986858E-3,.86325E-3,0
STARLINK-1280,2020-019AE,2026-06-28T00:00:02.000160,15.87235189,.0004269,53.0338,293.7013,347.2917,341.5174,0,U,45388,999,601,.34854945E-3,.93436E-3,0
STARLINK-1283,2020-019AF,2026-06-27T16:21:47.749824,15.74079124,.00024163,53.0379,288.5561,303.2038,56.8748,0,U,45389,999,34777,.45513777E-3,.66249E-3,0
STARLINK-1284,2020-019AG,2026-06-27T18:49:58.445472,15.72325555,.00028517,53.0402,312.1840,61.5723,298.5581,0,U,45390,999,34744,.45909808E-3,.61939E-3,0
STARLINK-1297,2020-019AM,2026-06-27T22:14:57.193440,15.75135616,.00010514,53.0407,310.5203,24.9070,335.2000,0,U,45395,999,34666,.53903508E-3,.82432E-3,0
STARLINK-1307,2020-019AP,2026-06-27T18:32:41.322336,15.58031385,.00007848,53.0528,319.2091,254.8982,105.1943,0,U,45397,999,34717,.55245753E-3,.41925E-3,0
STARLINK-1255,2020-019AR,2026-06-27T16:38:07.608768,15.67656348,.00013529,53.0339,286.0649,188.1967,171.9026,0,U,45399,999,34761,.42799856E-3,.47361E-3,0
STARLINK-1260,2020-019AW,2026-06-27T19:50:08.678112,15.39785580,.00027973,53.1559,334.1875,163.1637,196.9461,0,U,45404,999,34688,.13751309E-2,.5531E-3,0
STARLINK-1263,2020-019AX,2026-06-27T20:02:48.172992,15.36860967,.00018763,53.1574,335.8279,198.6162,161.4774,0,U,45405,999,34686,.14827162E-2,.5421E-3,0
STARLINK-1265,2020-019AY,2026-06-27T17:59:17.282976,15.40213259,.00005704,53.1540,334.4888,94.8281,265.2789,0,U,45406,999,34687,.24538408E-2,.101022E-2,0
STARLINK-1278,2020-019BA,2026-06-27T13:26:12.340320,15.76059370,.00016177,53.0398,311.1302,43.0259,317.0887,0,U,45408,999,34716,.46656012E-3,.74149E-3,0
STARLINK-1296,2020-019BE,2026-06-27T17:19:23.546784,15.40370067,.00020186,53.1544,334.2849,143.2369,216.8774,0,U,45412,999,34687,.14142039E-2,.58024E-3,0
STARLINK-1309,2020-019BG,2026-06-27T15:47:49.312032,15.74682840,.00014147,53.0603,304.8002,38.4619,321.6500,0,U,45414,999,34724,.45712449E-3,.68324E-3,0
STARLINK-1316,2020-019BH,2026-06-27T19:36:02.410848,15.40694044,.00026122,53.1555,333.7260,152.9182,207.1960,0,U,45415,999,34691,.12738819E-2,.52757E-3,0
STARLINK-1286,2020-019BK,2026-06-27T18:54:30.996864,15.66353077,.00038044,53.0454,316.4349,317.6856,42.3865,0,U,45417,999,34738,.57028051E-3,.6013E-3,0
STARLINK-1308,2020-019BM,2026-06-27T20:36:09.011232,15.67735572,.00055344,53.0457,335.2688,99.1991,260.9651,0,U,45419,999,34687,.46040209E-3,.51211E-3,0
STARLINK-1329,2020-025A,2026-06-27T22:33:09.617760,15.76078898,.00026564,53.0396,257.4130,329.1072,30.9791,0,U,45531,999,34275,.46624288E-3,.7417E-3,0
